IRIDIUM 119             
1 42959U 17061E   24097.48642402  .00000103  00000+0  29643-4 0  9997
2 42959  86.4027   0.2829 0002397  88.0355 272.1115 14.34218532339905
IRIDIUM 107             
1 42960U 17061F   24097.43569784  .00000043  00000+0  83830-5 0  9997
2 42960  86.4021   0.3202 0002353  83.4203 276.7260 14.34218506339902
IRIDIUM 132             
1 42961U 17061G   24097.44202355  .00000109  00000+0  32002-4 0  9994
2 42961  86.4027   0.3030 0002438  83.6475 276.4998 14.34217493339904
IRIDIUM 136             
1 42962U 17061H   24097.47373486  .00000217  00000+0  70576-4 0  9990
2 42962  86.4026   0.2925 0002289  92.5273 267.6185 14.34218861339927
IRIDIUM 139             
1 42963U 17061J   24097.48008792  .00000328  00000+0  11019-3 0  9996
2 42963  86.4028   0.3390 0002431  81.7107 278.4365 14.34217869339930
IRIDIUM 125             
1 42964U 17061K   24097.46739449  .00000318  00000+0  10652-3 0  9996
2 42964  86.4030   0.3906 0002495  89.5518 270.5964 14.34217144339944
IRIDIUM 135             
1 43070U 17083A   24097.30198650  .00000118  00000+0  35039-4 0  9990
2 43070  86.3918 297.1462 0001857  80.1305 280.0100 14.34214556329213
IRIDIUM 138             
1 43071U 17083B   24097.25760008  .00000060  00000+0  14416-4 0  9999
2 43071  86.3906 296.8908 0002359  94.0326 266.1139 14.34215721329196
